{"type": "FeatureCollection", "features": [ {"type": "Feature", "properties": {"norad_id": 66336, "name": "STARLINK-35404", "group": "last-30-days", "lat": -11.978245314584727, "lon": -134.91883397634155, "alt_km": 415.22361744124555, "timestamp": "2025-12-04T15:47:52.867432+00:00", "meta": {"OBJECT_NAME": "STARLINK-35404", "OBJECT_ID": "2025-253T", "EPOCH": "2025-12-03T12:40:16.785984", "MEAN_MOTION": 15.50633101, "ECCENTRICITY": 8.71e-05, "INCLINATION": 42.9975, "RA_OF_ASC_NODE": 38.5345, "ARG_OF_PERICENTER": 265.211, "MEAN_ANOMALY": 94.865, "EPHEMERIS_TYPE": 0, "CLASSIFICATION_TYPE": "U", "NORAD_CAT_ID": 66336, "ELEMENT_SET_NO": 999, "REV_AT_EPOCH": 550, "BSTAR": 0.0017646328, "MEAN_MOTION_DOT": 0.00104778, "MEAN_MOTION_DDOT": 0}, "tle": {"line1": "1 66336U 25253T   25337.52797206  .00104778  00000+0  17646-2 0  9991", "line2": "2 66336  42.9975  38.5345 0000871 265.2110  94.8650 15.50633101  5500"}}, "geometry": {"type": "Point", "coordinates": [-134.91883397634155, -11.978245314584727]}}, {"type": "Feature", "properties": {"norad_id": 66337, "name": "STARLINK-34783", "group": "last-30-days", "lat": 21.930846150333895, "lon": 57.92009818126947, "alt_km": 440.5611295505287, "timestamp": "2025-12-04T15:47:52.867443+00:00", "meta": {"OBJECT_NAME": "STARLINK-34783", "OBJECT_ID": "2025-253U", "EPOCH": "2025-12-04T04:45:52.840800", "MEAN_MOTION": 15.4082153, "ECCENTRICITY": 0.00059492, "INCLINATION": 42.9998, "RA_OF_ASC_NODE": 34.9717, "ARG_OF_PERICENTER": 289.8926, "MEAN_ANOMALY": 70.1289, "EPHEMERIS_TYPE": 0, "CLASSIFICATION_TYPE": "U", "NORAD_CAT_ID": 66337, "ELEMENT_SET_NO": 999, "REV_AT_EPOCH": 560, "BSTAR": 0.0033658207, "MEAN_MOTION_DOT": 0.0014361, "MEAN_MOTION_DDOT": 0}, "tle": {"line1": "1 66337U 25253U   25338.19852825  .00143610  00000+0  33658-2 0  9994", "line2": "2 66337  42.9998  34.9717 0005949 289.8926  70.1289 15.40821530  5607"}}, "geometry": {"type": "Point", "coordinates": [57.92009818126947, 21.930846150333895]}}, {"type": "Feature", "properties": {"norad_id": 66338, "name": "STARLINK-35477", "group": "last-30-days", "lat": -2.2030194088446584, "lon": 30.042019177195236, "alt_km": 443.34912642735344, "timestamp": "2025-12-04T15:47:52.867454+00:00", "meta": {"OBJECT_NAME": "STARLINK-35477", "OBJECT_ID": "2025-253V", "EPOCH": "2025-12-03T05:35:16.634688", "MEAN_MOTION": 15.40809844, "ECCENTRICITY": 5.96e-05, "INCLINATION": 43.0004, "RA_OF_ASC_NODE": 40.627, "ARG_OF_PERICENTER": 180.5282, "MEAN_ANOMALY": 179.5573, "EPHEMERIS_TYPE": 0, "CLASSIFICATION_TYPE": "U", "NORAD_CAT_ID": 66338, "ELEMENT_SET_NO": 999, "REV_AT_EPOCH": 545, "BSTAR": 0.0022359, "MEAN_MOTION_DOT": 0.00094607, "MEAN_MOTION_DDOT": 0}, "tle": {"line1": "1 66338U 25253V   25337.23283142  .00094607  00000+0  22359-2 0  9996", "line2": "2 66338  43.0004  40.6270 0000596 180.5282 179.5573 15.40809844  5458"}}, "geometry": {"type": "Point", "coordinates": [30.042019177195236, -2.2030194088446584]}}, {"type": "Feature", "properties": {"norad_id": 66339, "name": "STARLINK-35443", "group": "last-30-days", "lat": 23.074808480264817, "lon": -175.15341667345044, "alt_km": 441.1041035885619, "timestamp": "2025-12-04T15:47:52.867464+00:00", "meta": {"OBJECT_NAME": "STARLINK-35443", "OBJECT_ID": "2025-253W", "EPOCH": "2025-12-04T08:00:01.999872", "MEAN_MOTION": 15.40705882, "ECCENTRICITY": 0.00014373, "INCLINATION": 43.0004, "RA_OF_ASC_NODE": 33.9235, "ARG_OF_PERICENTER": 269.5286, "MEAN_ANOMALY": 231.1719, "EPHEMERIS_TYPE": 0, "CLASSIFICATION_TYPE": "U", "NORAD_CAT_ID": 66339, "ELEMENT_SET_NO": 999, "REV_AT_EPOCH": 562, "BSTAR": -0.0017457497, "MEAN_MOTION_DOT": -0.00072552, "MEAN_MOTION_DDOT": 0}, "tle": {"line1": "1 66339U 25253W   25338.33335648 -.00072552  00000+0 -17457-2 0  9998", "line2": "2 66339  43.0004  33.9235 0001437 269.5286 231.1719 15.40705882  5625"}}, "geometry": {"type": "Point", "coordinates": [-175.15341667345044, 23.074808480264817]}}, {"type": "Feature", "properties": {"norad_id": 66340, "name": "STARLINK-35218", "group": "last-30-days", "lat": -12.872144485184098, "lon": -133.88520192998365, "alt_km": 416.25873061494895, "timestamp": "2025-12-04T15:47:52.867475+00:00", "meta": {"OBJECT_NAME": "STARLINK-35218", "OBJECT_ID": "2025-253X", "EPOCH": "2025-12-04T04:07:21.263232", "MEAN_MOTION": 15.50617051, "ECCENTRICITY": 0.00018189, "INCLINATION": 43.0005, "RA_OF_ASC_NODE": 34.766, "ARG_OF_PERICENTER": 298.9764, "MEAN_ANOMALY": 61.0914, "EPHEMERIS_TYPE": 0, "CLASSIFICATION_TYPE": "U", "NORAD_CAT_ID": 66340, "ELEMENT_SET_NO": 999, "REV_AT_EPOCH": 560, "BSTAR": 0.0013103805, "MEAN_MOTION_DOT": 0.00077402, "MEAN_MOTION_DDOT": 0}, "tle": {"line1": "1 66340U 25253X   25338.17177388  .00077402  00000+0  13104-2 0  9999", "line2": "2 66340  43.0005  34.7660 0001818 298.9764  61.0914 15.50617051  5605"}}, "geometry": {"type": "Point", "coordinates": [-133.88520192998365, -12.872144485184098]}}, {"type": "Feature", "properties": {"norad_id": 66341, "name": "STARLINK-35522", "group": "last-30-days", "lat": 8.261936761729283, "lon": -156.96473960152878, "alt_km": 436.5186204073525, "timestamp": "2025-12-04T15:47:52.867487+00:00", "meta": {"OBJECT_NAME": "STARLINK-35522", "OBJECT_ID": "2025-253Y", "EPOCH": "2025-12-04T08:00:01.999872", "MEAN_MOTION": 15.44406871, "ECCENTRICITY": 0.00011106, "INCLINATION": 43.0004, "RA_OF_ASC_NODE": 33.8808, "ARG_OF_PERICENTER": 278.1578, "MEAN_ANOMALY": 241.9669, "EPHEMERIS_TYPE": 0, "CLASSIFICATION_TYPE": "U", "NORAD_CAT_ID": 66341, "ELEMENT_SET_NO": 999, "REV_AT_EPOCH": 567, "BSTAR": -0.049829818, "MEAN_MOTION_DOT": -0.02090445, "MEAN_MOTION_DDOT": 0}, "tle": {"line1": "1 66341U 25253Y   25338.33335648 -.02090445  00000+0 -49830-1 0  9993", "line2": "2 66341  43.0004  33.8808 0001110 278.1578 241.9669 15.44406871  5679"}}, "geometry": {"type": "Point", "coordinates": [-156.96473960152878, 8.261936761729283]}}, {"type": "Feature", "properties": {"norad_id": 66342, "name": "STARLINK-35535", "group": "last-30-days", "lat": 42.763943532566685, "lon": 129.2068212377686, "alt_km": 438.47022114073025, "timestamp": "2025-12-04T15:47:52.867500+00:00", "meta": {"OBJECT_NAME": "STARLINK-35535", "OBJECT_ID": "2025-253Z", "EPOCH": "2025-12-04T08:00:01.999872", "MEAN_MOTION": 15.407557, "ECCENTRICITY": 0.0001578, "INCLINATION": 43.0001, "RA_OF_ASC_NODE": 34.0446, "ARG_OF_PERICENTER": 257.7404, "MEAN_ANOMALY": 193.2422, "EPHEMERIS_TYPE": 0, "CLASSIFICATION_TYPE": "U", "NORAD_CAT_ID": 66342, "ELEMENT_SET_NO": 999, "REV_AT_EPOCH": 557, "BSTAR": -0.0041245675, "MEAN_MOTION_DOT": -0.0016915, "MEAN_MOTION_DDOT": 0}, "tle": {"line1": "1 66342U 25253Z   25338.33335648 -.00169150  00000+0 -41246-2 0  9996", "line2": "2 66342  43.0001  34.0446 0001578 257.7404 193.2422 15.40755700  5576"}}, "geometry": {"type": "Point", "coordinates": [129.2068212377686, 42.763943532566685]}}, {"type": "Feature", "properties": {"norad_id": 66343, "name": "STARLINK-35467", "group": "last-30-days", "lat": 35.23888603336221, "lon": 81.55909581918273, "alt_km": 439.56771160733933, "timestamp": "2025-12-04T15:47:52.867511+00:00", "meta": {"OBJECT_NAME": "STARLINK-35467", "OBJECT_ID": "2025-253AA", "EPOCH": "2025-12-04T08:00:01.999872", "MEAN_MOTION": 15.40810792, "ECCENTRICITY": 0.00014206, "INCLINATION": 43.0004, "RA_OF_ASC_NODE": 34.1357, "ARG_OF_PERICENTER": 251.0692, "MEAN_ANOMALY": 162.5824, "EPHEMERIS_TYPE": 0, "CLASSIFICATION_TYPE": "U", "NORAD_CAT_ID": 66343, "ELEMENT_SET_NO": 999, "REV_AT_EPOCH": 557, "BSTAR": -0.0063758855, "MEAN_MOTION_DOT": -0.00258764, "MEAN_MOTION_DDOT": 0}, "tle": {"line1": "1 66343U 25253AA  25338.33335648 -.00258764  00000+0 -63759-2 0  9990", "line2": "2 66343  43.0004  34.1357 0001420 251.0692 162.5824 15.40810792  5572"}}, "geometry": {"type": "Point", "coordinates": [81.55909581918273, 35.23888603336221]}}, {"type": "Feature", "properties": {"norad_id": 66344, "name": "STARLINK-35511", "group": "last-30-days", "lat": -23.772556033729124, "lon": -119.91517687682285, "alt_km": 416.75451326328766, "timestamp": "2025-12-04T15:47:52.867522+00:00", "meta": {"OBJECT_NAME": "STARLINK-35511", "OBJECT_ID": "2025-253AB", "EPOCH": "2025-12-04T04:02:54.289824", "MEAN_MOTION": 15.50595895, "ECCENTRICITY": 0.00013278, "INCLINATION": 43.0009, "RA_OF_ASC_NODE": 34.7407, "ARG_OF_PERICENTER": 272.093, "MEAN_ANOMALY": 87.9778, "EPHEMERIS_TYPE": 0, "CLASSIFICATION_TYPE": "U", "NORAD_CAT_ID": 66344, "ELEMENT_SET_NO": 999, "REV_AT_EPOCH": 560, "BSTAR": 0.000184478, "MEAN_MOTION_DOT": 0.00010502, "MEAN_MOTION_DDOT": 0}, "tle": {"line1": "1 66344U 25253AB  25338.16868391  .00010502  00000+0  18448-3 0  9998", "line2": "2 66344  43.0009  34.7407 0001327 272.0930  87.9778 15.50595895  5601"}}, "geometry": {"type": "Point", "coordinates": [-119.91517687682285, -23.772556033729124]}}, {"type": "Feature", "properties": {"norad_id": 66345, "name": "STARLINK-35440", "group": "last-30-days", "lat": -1.2060592825279701, "lon": -146.74482573968035, "alt_km": 440.3895215419134, "timestamp": "2025-12-04T15:47:52.867532+00:00", "meta": {"OBJECT_NAME": "STARLINK-35440", "OBJECT_ID": "2025-253AC", "EPOCH": "2025-12-04T08:00:01.999872", "MEAN_MOTION": 15.43244953, "ECCENTRICITY": 0.00010733, "INCLINATION": 43.0009, "RA_OF_ASC_NODE": 33.8386, "ARG_OF_PERICENTER": 269.3027, "MEAN_ANOMALY": 266.0229, "EPHEMERIS_TYPE": 0, "CLASSIFICATION_TYPE": "U", "NORAD_CAT_ID": 66345, "ELEMENT_SET_NO": 999, "REV_AT_EPOCH": 557, "BSTAR": -0.046079975, "MEAN_MOTION_DOT": -0.01881415, "MEAN_MOTION_DDOT": 0}, "tle": {"line1": "1 66345U 25253AC  25338.33335648 -.01881415  00000+0 -46080-1 0  9995", "line2": "2 66345  43.0009  33.8386 0001073 269.3027 266.0229 15.43244953  5577"}}, "geometry": {"type": "Point", "coordinates": [-146.74482573968035, -1.2060592825279701]}}]}